{
"type": "FeatureCollection",
"name": "DiemQuanTrac",
"crs": { "type": "name", "properties": { "name": "urn:ogc:def:crs:OGC:1.3:CRS84" } },
"features": [
{"type":"Feature","properties":{"Ký hiệu mẫu":"NM1","Tên điểm":"Mẫu nước mặt lấy tại cầu Đỏ đoạn trước khi chảy qua thị trấn Trà Xuân, xã Trà Thủy, huyện Trà Bồng, tỉnh Quảng Ngãi","Tọa độ X (kinh độ)":108.49583333,"Tọa độ Y (vĩ độ)":15.26166667,"Huyện ":"Huyện Trà Bồng","Xã":"Xã Trà Thủy","Loại nguồn nước":"Sông"},"geometry":{"type":"Point","coordinates":[108.49583333,15.26166667]}},
{"type":"Feature","properties":{"Ký hiệu mẫu":"NM2","Tên điểm":"Mẫu nước mặt lấy tại sông Trà Bồng đoạn chảy qua thị trấn Trà Xuân, huyện Trà Bồng, tỉnh Quảng Ngãi","Tọa độ X (kinh độ)":108.53833333,"Tọa độ Y (vĩ độ)":15.25416667,"Huyện ":"Huyện Trà Bồng","Xã":"Thị trấn Trà Xuân","Loại nguồn nước":"Sông"},"geometry":{"type":"Point","coordinates":[108.53833333,15.25416667]}},
{"type":"Feature","properties":{"Ký hiệu mẫu":"NM3","Tên điểm":"Mẫu nước mặt Sông Trà Bồng cách cầu Châu Ổ khoảng 300 m về phía Tây, thị trấn Châu Ổ, huyện Bình Sơn, tỉnh Quảng Ngãi","Tọa độ X (kinh độ)":108.75528056,"Tọa độ Y (vĩ độ)":15.29986389,"Huyện ":"Huyện Bình Sơn","Xã":"Thị trấn Châu Ổ","Loại nguồn nước":"Sông"},"geometry":{"type":"Point","coordinates":[108.75528056,15.29986389]}},
{"type":"Feature","properties":{"Ký hiệu mẫu":"NM4","Tên điểm":"Mẫu nước mặt Sông Trà Bồng tại bến đò Châu Ổ (Cách cầu Châu Ổ khoảng 300 m về phía Đông), thị trấn Châu Ổ, huyện Bình Sơn, tỉnh Quảng Ngãi","Tọa độ X (kinh độ)":108.75879722000001,"Tọa độ Y (vĩ độ)":15.30431667,"Huyện ":"Huyện Bình Sơn","Xã":"Thị trấn Châu Ổ","Loại nguồn nước":"Sông"},"geometry":{"type":"Point","coordinates":[108.75879722,15.30431667]}},
{"type":"Feature","properties":{"Ký hiệu mẫu":"NM5","Tên điểm":"Mẫu nước mặt Cửa biển Sa Cần, thôn Tân Hy, xã Bình Đông, huyện Bình Sơn, tỉnh Quảng Ngãi","Tọa độ X (kinh độ)":108.77511667,"Tọa độ Y (vĩ độ)":15.38560556,"Huyện ":"Huyện Bình Sơn","Xã":"Xã Bình Đông","Loại nguồn nước":"Cửa biển"},"geometry":{"type":"Point","coordinates":[108.77511667,15.38560556]}},
{"type":"Feature","properties":{"Ký hiệu mẫu":"NM6","Tên điểm":"Mẫu nước mặt lấy tại sông Re, thôn Mang Biều, xã Ba Tiêu, huyện Ba Tơ, tỉnh Quảng Ngãi","Tọa độ X (kinh độ)":108.56138889,"Tọa độ Y (vĩ độ)":14.73944444,"Huyện ":"Huyện Ba Tơ","Xã":"Xã Ba Tiêu","Loại nguồn nước":"Sông"},"geometry":{"type":"Point","coordinates":[108.56138889,14.73944444]}},
{"type":"Feature","properties":{"Ký hiệu mẫu":"NM7","Tên điểm":"Mẫu nước mặt lấy tại nhập lưu sông Rinh và sông Re, xã Sơn Hải, huyện Sơn Hà, tỉnh Quảng Ngãi ","Tọa độ X (kinh độ)":108.51806667,"Tọa độ Y (vĩ độ)":15.00563333,"Huyện ":"Huyện Sơn Hà","Xã":"Xã Sơn Hải","Loại nguồn nước":"Sông"},"geometry":{"type":"Point","coordinates":[108.51806667,15.00563333]}},
{"type":"Feature","properties":{"Ký hiệu mẫu":"NM8","Tên điểm":"Mẫu nước mặt lấy tại khu vực gần đập dâng kênh đầu mối Thạch Nham, huyện Tư Nghĩa, tỉnh Quảng Ngãi","Tọa độ X (kinh độ)":108.62,"Tọa độ Y (vĩ độ)":15.11944444,"Huyện ":"Huyện Tư Nghĩa","Xã":null,"Loại nguồn nước":"Kênh"},"geometry":{"type":"Point","coordinates":[108.62,15.11944444]}},
{"type":"Feature","properties":{"Ký hiệu mẫu":"NM9","Tên điểm":"Mẫu nước mặt Sông Trà Khúc tại Cầu Thạch Bích, trung đoạn Sông Trà Khúc, thành phố Quảng Ngãi, tỉnh Quảng Ngãi","Tọa độ X (kinh độ)":108.78612222,"Tọa độ Y (vĩ độ)":15.13557778,"Huyện ":"TP. Quảng Ngãi","Xã":null,"Loại nguồn nước":"Sông"},"geometry":{"type":"Point","coordinates":[108.78612222,15.13557778]}},
{"type":"Feature","properties":{"Ký hiệu mẫu":"NM10","Tên điểm":"Mẫu nước mặt lấy tại Bến Tam Thương (phía dưới cống Hào Thành), phường Lê Hồng Phong, thành phố Quảng Ngãi, tỉnh Quảng Ngãi","Tọa độ X (kinh độ)":108.81775278000001,"Tọa độ Y (vĩ độ)":15.12622222,"Huyện ":"TP. Quảng Ngãi","Xã":"Phường Lê Hồng Phong","Loại nguồn nước":"Sông"},"geometry":{"type":"Point","coordinates":[108.81775278,15.12622222]}},
{"type":"Feature","properties":{"Ký hiệu mẫu":"NM11","Tên điểm":"Mẫu nước mặt Sông Trà Khúc tại cửa biển Cửa Đại, xã Nghĩa Phú, tp Quảng Ngãi, tỉnh Quảng Ngãi","Tọa độ X (kinh độ)":108.88861111,"Tọa độ Y (vĩ độ)":15.14166667,"Huyện ":"TP. Quảng Ngãi","Xã":"Xã Nghĩa Phú","Loại nguồn nước":"Cửa biển"},"geometry":{"type":"Point","coordinates":[108.88861111,15.14166667]}},
{"type":"Feature","properties":{"Ký hiệu mẫu":"NM12","Tên điểm":"Mẫu nước mặt lấy tại ngã Ba Chùa, thượng lưu thị trấn Ba Tơ, xã Ba Chùa, huyện Ba Tơ, tỉnh Quảng Ngãi","Tọa độ X (kinh độ)":108.71138889,"Tọa độ Y (vĩ độ)":14.75472222,"Huyện ":"Huyện Ba Tơ","Xã":"Xã Ba Chùa","Loại nguồn nước":"Sông"},"geometry":{"type":"Point","coordinates":[108.71138889,14.75472222]}},
{"type":"Feature","properties":{"Ký hiệu mẫu":"NM13","Tên điểm":"Mẫu nước mặt lấy tại thượng nguồn Sông Vệ tại cầu sông Liên, thị trấn Ba Tơ, huyện Ba Tơ, tỉnh Quảng Ngãi","Tọa độ X (kinh độ)":108.72833333,"Tọa độ Y (vĩ độ)":14.75972222,"Huyện ":"Huyện Ba Tơ","Xã":"Thị trấn Ba Tơ","Loại nguồn nước":"Sông"},"geometry":{"type":"Point","coordinates":[108.72833333,14.75972222]}},
{"type":"Feature","properties":{"Ký hiệu mẫu":"NM14","Tên điểm":"Mẫu nước mặt sông Vệ tại cầu Cộng Hoà, xã Hành Thiện, huyện Nghĩa Hành, tỉnh Quảng Ngãi","Tọa độ X (kinh độ)":108.77394444,"Tọa độ Y (vĩ độ)":14.96241667,"Huyện ":"Huyện Nghĩa Hành","Xã":"Xã Hành Thiện","Loại nguồn nước":"Sông"},"geometry":{"type":"Point","coordinates":[108.77394444,14.96241667]}},
{"type":"Feature","properties":{"Ký hiệu mẫu":"NM15","Tên điểm":"Mẫu nước mặt lấy tại cầu Sông Vệ - Thị Trấn Sông Vệ - huyện Tư Nghĩa, tỉnh Quảng Ngãi","Tọa độ X (kinh độ)":108.85077778,"Tọa độ Y (vĩ độ)":15.04027778,"Huyện ":"Huyện Tư Nghĩa","Xã":"Thị trấn Sông Vệ","Loại nguồn nước":"Sông"},"geometry":{"type":"Point","coordinates":[108.85077778,15.04027778]}},
{"type":"Feature","properties":{"Ký hiệu mẫu":"NM16","Tên điểm":"Mẫu nước mặt lấy tại hạ nguồn sông Vệ tại Cửa Lỡ, xã Đức Lợi, huyện Mộ Đức, tỉnh Quảng Ngãi","Tọa độ X (kinh độ)":108.90141111,"Tọa độ Y (vĩ độ)":15.08694722,"Huyện ":"Huyện Mộ Đức","Xã":"Xã Đức Lợi","Loại nguồn nước":"Cửa biển"},"geometry":{"type":"Point","coordinates":[108.90141111,15.08694722]}},
{"type":"Feature","properties":{"Ký hiệu mẫu":"NM17","Tên điểm":"Mẫu nước mặt lấy tại thượng nguồn sông Trà Câu, trên nhà máy đường Phổ Phong, Quốc Lộ 24A, xã Phổ Phong, thị xã Đức Phổ, tỉnh Quảng Ngãi","Tọa độ X (kinh độ)":108.86973056,"Tọa độ Y (vĩ độ)":14.85139444,"Huyện ":"Thị xã Đức Phổ","Xã":"Xã Phổ Phong","Loại nguồn nước":"Sông"},"geometry":{"type":"Point","coordinates":[108.86973056,14.85139444]}},
{"type":"Feature","properties":{"Ký hiệu mẫu":"NM18","Tên điểm":"Mẫu nước mặt lấy tại cầu Trà Câu, phường Phổ Ninh, thị xã Đức Phổ, tỉnh Quảng Ngãi","Tọa độ X (kinh độ)":108.94141389000001,"Tọa độ Y (vĩ độ)":14.843075,"Huyện ":"Thị xã Đức Phổ","Xã":"Phường Phổ Ninh","Loại nguồn nước":"Sông"},"geometry":{"type":"Point","coordinates":[108.94141389,14.843075]}},
{"type":"Feature","properties":{"Ký hiệu mẫu":"NM19","Tên điểm":"Mẫu nước mặt lấy tại sông Trà Câu tại cửa biển Mỹ Á, thôn Hải Tân, phường Phổ Quang, thị xã Đức Phổ, tỉnh Quảng Ngãi","Tọa độ X (kinh độ)":108.89709444,"Tọa độ Y (vĩ độ)":14.83106944,"Huyện ":"Thị xã Đức Phổ","Xã":"Phường Phổ Quang","Loại nguồn nước":"Cửa biển"},"geometry":{"type":"Point","coordinates":[108.89709444,14.83106944]}},
{"type":"Feature","properties":{"Ký hiệu mẫu":"NM20","Tên điểm":"Mẫu nước mặt sông Bàu Giang tại điểm cắt với đường cao tốc Đà Nẵng – Quảng Ngãi, thôn Điền Chánh, xã Nghĩa Điền, huyện Tư Nghĩa, tỉnh Quảng Ngãi","Tọa độ X (kinh độ)":108.77777778,"Tọa độ Y (vĩ độ)":15.08944444,"Huyện ":"Huyện Tư Nghĩa","Xã":"Xã Nghĩa Điền*","Loại nguồn nước":"Sông"},"geometry":{"type":"Point","coordinates":[108.77777778,15.08944444]}},
{"type":"Feature","properties":{"Ký hiệu mẫu":"NM21","Tên điểm":"Mẫu nước mặt sông Bàu Giang tại cầu Bầu Giang, TT. La Hà, huyện Tư Nghĩa, tỉnh Quảng Ngãi","Tọa độ X (kinh độ)":108.81777778,"Tọa độ Y (vĩ độ)":15.09763056,"Huyện ":"Huyện Tư Nghĩa","Xã":"Thị trấn La Hà","Loại nguồn nước":"Sông"},"geometry":{"type":"Point","coordinates":[108.81777778,15.09763056]}},
{"type":"Feature","properties":{"Ký hiệu mẫu":"NM22","Tên điểm":"Mẫu nước mặt lấy tại hạ nguồn sông Bàu Giang tại cầu Hiền Lương, xã Nghĩa Hà, TP.Quảng Ngãi, tỉnh Quảng Ngãi","Tọa độ X (kinh độ)":108.87894722,"Tọa độ Y (vĩ độ)":15.11949722,"Huyện ":"TP. Quảng Ngãi","Xã":"Xã Nghĩa Hà","Loại nguồn nước":"Sông"},"geometry":{"type":"Point","coordinates":[108.87894722,15.11949722]}},
{"type":"Feature","properties":{"Ký hiệu mẫu":"NM23","Tên điểm":"Mẫu nước mặt sông Thoa lấy tại điểm cắt với đường tránh thị trấn Mộ Đức, xã Đức Thạnh, huyện Mộ Đức, tỉnh Quảng Ngãi","Tọa độ X (kinh độ)":108.88890278,"Tọa độ Y (vĩ độ)":14.97528056,"Huyện ":"Huyện Mộ Đức","Xã":"Xã Đức Thạnh","Loại nguồn nước":"Sông"},"geometry":{"type":"Point","coordinates":[108.88890278,14.97528056]}},
{"type":"Feature","properties":{"Ký hiệu mẫu":"NM24","Tên điểm":"Mẫu nước mặt sông Thoa lấy tại cầu Phổ An, xã Phổ An, thị xã Đức Phổ, tỉnh Quảng Ngãi","Tọa độ X (kinh độ)":108.93916667000001,"Tọa độ Y (vĩ độ)":14.89224167,"Huyện ":"Thị xã Đức Phổ","Xã":"Xã Phổ An","Loại nguồn nước":"Sông"},"geometry":{"type":"Point","coordinates":[108.93916667,14.89224167]}},
{"type":"Feature","properties":{"Ký hiệu mẫu":"NM25","Tên điểm":"Mẫu nước mặt sông Thoa lấy tại cầu Đò Mốc, phường Phổ Quang, thị xã Đức Phổ, tỉnh Quảng Ngãi","Tọa độ X (kinh độ)":108.96416667,"Tọa độ Y (vĩ độ)":14.85168333,"Huyện ":"Thị xã Đức Phổ","Xã":"Phường Phổ Quang","Loại nguồn nước":"Sông"},"geometry":{"type":"Point","coordinates":[108.96416667,14.85168333]}},
{"type":"Feature","properties":{"Ký hiệu mẫu":"NM26","Tên điểm":"Mẫu nước mặt Suối Bản Thuyền lấy tại cầu Bản Thuyền, xã Tịnh Phong, huyện Sơn Tịnh, tỉnh Quảng Ngãi","Tọa độ X (kinh độ)":108.792525,"Tọa độ Y (vĩ độ)":15.19778611,"Huyện ":"Huyện Sơn Tịnh","Xã":"Xã Tịnh Phong","Loại nguồn nước":"Suối"},"geometry":{"type":"Point","coordinates":[108.792525,15.19778611]}},
{"type":"Feature","properties":{"Ký hiệu mẫu":"NM27","Tên điểm":"Mẫu nước mặt lấy tại Suối Bản Thuyền đoạn dưới KCN Tịnh Phong, xã Tịnh Phong, huyện Sơn Tịnh, tỉnh Quảng Ngãi","Tọa độ X (kinh độ)":108.803675,"Tọa độ Y (vĩ độ)":15.188775,"Huyện ":"Huyện Sơn Tịnh","Xã":"Xã Tịnh Phong","Loại nguồn nước":"Suối"},"geometry":{"type":"Point","coordinates":[108.803675,15.188775]}},
{"type":"Feature","properties":{"Ký hiệu mẫu":"NM28","Tên điểm":"Mẫu nước mặt lấy tại hạ nguồn kênh Bàu Lăng, phường Quảng Phú, TP.Quảng Ngãi, tỉnh Quảng Ngãi","Tọa độ X (kinh độ)":108.77946111,"Tọa độ Y (vĩ độ)":15.11335,"Huyện ":"TP. Quảng Ngãi","Xã":"Phường Quảng Phú","Loại nguồn nước":"Kênh"},"geometry":{"type":"Point","coordinates":[108.77946111,15.11335]}},
{"type":"Feature","properties":{"Ký hiệu mẫu":"NM29","Tên điểm":"Mẫu nước mặt lấy tại hạ nguồn kênh Chìm phía dưới Cụm công nghiệp Tịnh Ấn Tây, xã Tịnh Ấn Tây, thành phố Quảng Ngãi, tỉnh Quảng Ngãi","Tọa độ X (kinh độ)":108.786875,"Tọa độ Y (vĩ độ)":15.16085278,"Huyện ":"TP. Quảng Ngãi","Xã":"Xã Tịnh Ấn Tây","Loại nguồn nước":"Kênh"},"geometry":{"type":"Point","coordinates":[108.786875,15.16085278]}},
{"type":"Feature","properties":{"Ký hiệu mẫu":"NM30","Tên điểm":"Mẫu nước mặt lấy tại hồ chứa nước Nước Trong, xã Sơn Bao, huyện Sơn Hà, tỉnh Quảng Ngãi","Tọa độ X (kinh độ)":108.41222222,"Tọa độ Y (vĩ độ)":15.08472222,"Huyện ":"Huyện Sơn Hà","Xã":"Xã Sơn Bao","Loại nguồn nước":"Hồ chứa"},"geometry":{"type":"Point","coordinates":[108.41222222,15.08472222]}},
{"type":"Feature","properties":{"Ký hiệu mẫu":"NM31","Tên điểm":"Mẫu nước mặt lấy tại đầm An Khê, xã Phổ Khánh, thị xã Đức Phổ, tỉnh Quảng Ngãi","Tọa độ X (kinh độ)":109.04746111,"Tọa độ Y (vĩ độ)":14.71779167,"Huyện ":"Thị xã Đức Phổ","Xã":"Xã Phổ Khánh","Loại nguồn nước":"Đầm"},"geometry":{"type":"Point","coordinates":[109.04746111,14.71779167]}},
{"type":"Feature","properties":{"Ký hiệu mẫu":null,"Tên điểm":null,"Tọa độ X (kinh độ)":null,"Tọa độ Y (vĩ độ)":null,"Huyện ":null,"Xã":null,"Loại nguồn nước":null},"geometry":null},
{"type":"Feature","properties":{"Ký hiệu mẫu":null,"Tên điểm":null,"Tọa độ X (kinh độ)":null,"Tọa độ Y (vĩ độ)":null,"Huyện ":null,"Xã":null,"Loại nguồn nước":null},"geometry":null},
{"type":"Feature","properties":{"Ký hiệu mẫu":null,"Tên điểm":null,"Tọa độ X (kinh độ)":null,"Tọa độ Y (vĩ độ)":null,"Huyện ":null,"Xã":null,"Loại nguồn nước":null},"geometry":null},
{"type":"Feature","properties":{"Ký hiệu mẫu":null,"Tên điểm":null,"Tọa độ X (kinh độ)":null,"Tọa độ Y (vĩ độ)":null,"Huyện ":null,"Xã":null,"Loại nguồn nước":null},"geometry":null}
]
}
