{"type": "FeatureCollection", "features": [{"type": "Feature", "properties": {"name": "Tỉnh Quảng Ngãi (mới)", "note": "Sáp nhập Quảng Ngãi + Kon Tum, hiệu lực 2025"}, "geometry": {"type": "MultiPolygon", "coordinates": [[[[107.4557, 13.9795], [107.4524, 13.9807], [107.4456, 13.9884], [107.4439, 13.9971], [107.4368, 13.9965], [107.4322, 13.9938], [107.4282, 13.9984], [107.4225, 13.9945], [107.4115, 13.9936], [107.4071, 13.9901], [107.4011, 13.9901], [107.3971, 13.9933], [107.3933, 13.9909], [107.3863, 13.9896], [107.3745, 14.0015], [107.3656, 14.0132], [107.3579, 14.0165], [107.3574, 14.0279], [107.3643, 14.0316], [107.3657, 14.0347], [107.3638, 14.0506], [107.366, 14.056], [107.3647, 14.0626], [107.3715, 14.0701], [107.3701, 14.0772], [107.3735, 14.0836], [107.3672, 14.0835], [107.3575, 14.0961], [107.352, 14.098], [107.3508, 14.1012], [107.3477, 14.1009], [107.3445, 14.107], [107.3375, 14.1062], [107.3349, 14.1078], [107.3365, 14.1127], [107.3354, 14.115], [107.3408, 14.1323], [107.3455, 14.137], [107.347, 14.1416], [107.3539, 14.1498], [107.353, 14.1542], [107.3589, 14.1574], [107.363, 14.1629], [107.3587, 14.169], [107.3685, 14.1798], [107.3774, 14.1793], [107.3799, 14.186], [107.382, 14.1876], [107.3818, 14.1921], [107.3865, 14.2002], [107.388, 14.2063], [107.3903, 14.2102], [107.3946, 14.2109], [107.3974, 14.2247], [107.408, 14.2355], [107.4002, 14.2492], [107.4027, 14.2556], [107.4083, 14.2607], [107.4097, 14.2647], [107.4094, 14.2785], [107.4057, 14.2866], [107.4067, 14.2985], [107.4051, 14.3015], [107.3973, 14.3074], [107.3971, 14.3118], [107.3912, 14.3158], [107.3908, 14.3263], [107.3993, 14.3329], [107.4025, 14.3426], [107.4084, 14.3466], [107.4108, 14.3566], [107.4086, 14.3634], [107.4123, 14.3619], [107.4152, 14.3626], [107.4286, 14.3768], [107.4343, 14.381], [107.4392, 14.3809], [107.4401, 14.3821], [107.4413, 14.3929], [107.444, 14.3958], [107.4406, 14.3964], [107.4463, 14.4028], [107.4498, 14.4185], [107.4514, 14.4182], [107.4531, 14.4144], [107.4584, 14.4127], [107.4605, 14.406], [107.4676, 14.4048], [107.4746, 14.4085], [107.4814, 14.4034], [107.489, 14.4072], [107.4904, 14.414], [107.4892, 14.4171], [107.4907, 14.4203], [107.4896, 14.4288], [107.4931, 14.4345], [107.4962, 14.4344], [107.4979, 14.4362], [107.5026, 14.4528], [107.5057, 14.4579], [107.5018, 14.4621], [107.5014, 14.4657], [107.5044, 14.4703], [107.5063, 14.4851], [107.5102, 14.4893], [107.5101, 14.4961], [107.5141, 14.498], [107.5138, 14.502], [107.5105, 14.5029], [107.507, 14.5084], [107.5116, 14.511], [107.5158, 14.5113], [107.5214, 14.5178], [107.5233, 14.5249], [107.5223, 14.5286], [107.5258, 14.5314], [107.5255, 14.534], [107.5281, 14.5368], [107.5269, 14.5426], [107.5322, 14.5463], [107.5297, 14.5497], [107.532, 14.5526], [107.5319, 14.5555], [107.5299, 14.5581], [107.5251, 14.5604], [107.526, 14.5624], [107.5226, 14.5658], [107.5241, 14.573], [107.522, 14.5805], [107.517, 14.5849], [107.5223, 14.5881], [107.5221, 14.592], [107.5251, 14.5981], [107.534, 14.5984], [107.5392, 14.6042], [107.5441, 14.6068], [107.5451, 14.611], [107.5441, 14.6161], [107.5494, 14.618], [107.5515, 14.6174], [107.5596, 14.6226], [107.5573, 14.6257], [107.5589, 14.6283], [107.5578, 14.6343], [107.5542, 14.64], [107.5513, 14.6409], [107.5518, 14.6503], [107.5498, 14.6523], [107.5485, 14.658], [107.5486, 14.6595], [107.5546, 14.6594], [107.5548, 14.6674], [107.5513, 14.6705], [107.5496, 14.6772], [107.5564, 14.6851], [107.5601, 14.6943], [107.5594, 14.7038], [107.555, 14.7117], [107.5562, 14.7208], [107.5463, 14.7208], [107.5354, 14.7249], [107.5239, 14.7223], [107.5213, 14.7279], [107.5267, 14.7339], [107.5386, 14.741], [107.5379, 14.7435], [107.5421, 14.7501], [107.5391, 14.7552], [107.5352, 14.7582], [107.534, 14.7649], [107.5303, 14.7668], [107.5312, 14.7702], [107.53, 14.7721], [107.5272, 14.7729], [107.5255, 14.7759], [107.5199, 14.7757], [107.5156, 14.7844], [107.5098, 14.7836], [107.5058, 14.786], [107.5088, 14.7902], [107.5078, 14.7921], [107.5094, 14.7957], [107.5156, 14.7993], [107.517, 14.8019], [107.5194, 14.8017], [107.5243, 14.8051], [107.5224, 14.8137], [107.5286, 14.8138], [107.5366, 14.8183], [107.54, 14.8182], [107.5411, 14.826], [107.5471, 14.8308], [107.5619, 14.8386], [107.5656, 14.8441], [107.5666, 14.8487], [107.5703, 14.852], [107.58, 14.8547], [107.5801, 14.8574], [107.5899, 14.8637], [107.5895, 14.8696], [107.5915, 14.8736], [107.5875, 14.8763], [107.5887, 14.8795], [107.5855, 14.8832], [107.5849, 14.892], [107.5785, 14.8935], [107.5729, 14.8917], [107.5619, 14.9024], [107.5544, 14.9015], [107.5512, 14.9041], [107.5442, 14.9055], [107.5329, 14.916], [107.5296, 14.9222], [107.5303, 14.928], [107.515, 14.931], [107.5059, 14.9288], [107.4992, 14.9369], [107.5008, 14.9377], [107.4997, 14.9429], [107.4906, 14.9437], [107.4834, 14.9512], [107.4786, 14.9591], [107.4824, 14.9706], [107.4739, 14.9767], [107.4711, 14.9834], [107.4673, 14.9849], [107.4678, 14.9876], [107.4778, 14.9872], [107.4769, 14.9898], [107.4782, 14.9926], [107.4731, 14.9942], [107.4705, 14.9978], [107.4709, 15.0006], [107.4681, 15.0079], [107.4736, 15.0202], [107.4907, 15.0242], [107.4968, 15.0203], [107.5005, 15.0216], [107.5046, 15.0258], [107.5151, 15.0304], [107.5155, 15.0323], [107.5194, 15.0348], [107.5194, 15.0389], [107.5242, 15.0387], [107.5307, 15.0409], [107.5406, 15.0493], [107.5534, 15.0449], [107.565, 15.0352], [107.57, 15.0359], [107.5759, 15.0327], [107.5774, 15.0297], [107.5852, 15.0289], [107.5884, 15.0299], [107.5877, 15.0346], [107.5894, 15.0392], [107.5949, 15.0459], [107.5937, 15.051], [107.6014, 15.0491], [107.6055, 15.0457], [107.6116, 15.0475], [107.6145, 15.0455], [107.6211, 15.0509], [107.6151, 15.0617], [107.615, 15.0662], [107.6108, 15.0671], [107.6041, 15.0763], [107.6027, 15.0821], [107.5981, 15.087], [107.6118, 15.1007], [107.6189, 15.1026], [107.6229, 15.1058], [107.6229, 15.1093], [107.6192, 15.1155], [107.6188, 15.1194], [107.6103, 15.127], [107.6079, 15.1328], [107.6124, 15.1312], [107.6229, 15.1351], [107.6253, 15.1401], [107.624, 15.1467], [107.6271, 15.1494], [107.6171, 15.1548], [107.6104, 15.1712], [107.6071, 15.1738], [107.6007, 15.1858], [107.5983, 15.1847], [107.5975, 15.1887], [107.5957, 15.1907], [107.5932, 15.1907], [107.5875, 15.197], [107.5833, 15.1966], [107.584, 15.2005], [107.5879, 15.2011], [107.591, 15.2047], [107.5934, 15.2037], [107.5943, 15.2052], [107.5927, 15.2091], [107.5944, 15.2107], [107.5967, 15.2104], [107.5991, 15.2059], [107.6021, 15.2039], [107.6115, 15.2118], [107.6174, 15.213], [107.6196, 15.2116], [107.6216, 15.2141], [107.6188, 15.2201], [107.6206, 15.2268], [107.6261, 15.2262], [107.6326, 15.2304], [107.6252, 15.2313], [107.6233, 15.2402], [107.6195, 15.2456], [107.6208, 15.2481], [107.6192, 15.2553], [107.6209, 15.2656], [107.6185, 15.2674], [107.618, 15.271], [107.6156, 15.2712], [107.6168, 15.2783], [107.6149, 15.2876], [107.6185, 15.2935], [107.6218, 15.2953], [107.6202, 15.301], [107.6237, 15.3106], [107.6309, 15.3106], [107.6339, 15.3133], [107.635, 15.3192], [107.6267, 15.3274], [107.6254, 15.3327], [107.6219, 15.3328], [107.6203, 15.3303], [107.6167, 15.3304], [107.6141, 15.3336], [107.6098, 15.3347], [107.6091, 15.3376], [107.6103, 15.3391], [107.6073, 15.3435], [107.6084, 15.3524], [107.6052, 15.3528], [107.6048, 15.3566], [107.6063, 15.3579], [107.6058, 15.3626], [107.6088, 15.3673], [107.6039, 15.3713], [107.6033, 15.3746], [107.5997, 15.3755], [107.5954, 15.382], [107.6056, 15.3886], [107.6087, 15.3931], [107.6128, 15.3939], [107.6167, 15.4058], [107.6208, 15.4117], [107.6317, 15.4175], [107.638, 15.4155], [107.6423, 15.4063], [107.6549, 15.3972], [107.6563, 15.3922], [107.6603, 15.3884], [107.6617, 15.3844], [107.6597, 15.373], [107.664, 15.3657], [107.6646, 15.362], [107.6624, 15.3576], [107.6633, 15.354], [107.6688, 15.348], [107.669, 15.3454], [107.677, 15.3433], [107.6795, 15.3394], [107.6791, 15.3344], [107.6862, 15.3273], [107.6906, 15.3258], [107.6931, 15.3175], [107.7018, 15.3111], [107.7077, 15.3034], [107.7156, 15.3077], [107.7309, 15.3073], [107.7311, 15.3051], [107.7278, 15.3032], [107.73, 15.296], [107.7271, 15.2888], [107.7286, 15.2863], [107.7302, 15.2707], [107.7271, 15.2677], [107.7291, 15.2673], [107.7298, 15.2628], [107.7321, 15.2616], [107.7322, 15.2537], [107.7341, 15.2531], [107.7349, 15.2503], [107.7352, 15.2415], [107.7372, 15.2378], [107.739, 15.2374], [107.7365, 15.2334], [107.7352, 15.2355], [107.7338, 15.2347], [107.7352, 15.2305], [107.7386, 15.229], [107.7427, 15.2305], [107.7469, 15.2299], [107.7557, 15.2365], [107.7712, 15.2297], [107.771, 15.2229], [107.7787, 15.218], [107.7872, 15.2189], [107.7973, 15.217], [107.8089, 15.2122], [107.8148, 15.2136], [107.8185, 15.2164], [107.8292, 15.209], [107.8477, 15.2067], [107.8512, 15.2098], [107.8713, 15.2105], [107.8823, 15.197], [107.8916, 15.193], [107.9001, 15.2055], [107.9094, 15.2067], [107.9146, 15.212], [107.9276, 15.2096], [107.9307, 15.2071], [107.9314, 15.2028], [107.9339, 15.2006], [107.9335, 15.1952], [107.9371, 15.1908], [107.9486, 15.1865], [107.9504, 15.1751], [107.9617, 15.1726], [107.9659, 15.1692], [107.9817, 15.1666], [107.9878, 15.1585], [107.9997, 15.1562], [108.0003, 15.1494], [108.0043, 15.1427], [108.0008, 15.1345], [108.0009, 15.13], [107.9983, 15.1277], [107.9989, 15.1228], [108.0024, 15.1218], [108.002, 15.1193], [107.9964, 15.1152], [107.9934, 15.1105], [107.9887, 15.0993], [107.9887, 15.0954], [107.9851, 15.0919], [107.9843, 15.0879], [107.9805, 15.0855], [107.9756, 15.0855], [107.9787, 15.0796], [107.9753, 15.0742], [107.976, 15.0691], [107.9643, 15.0653], [107.9551, 15.0584], [107.9531, 15.0546], [107.9536, 15.0484], [107.9595, 15.0429], [107.9595, 15.0335], [107.9652, 15.0207], [107.9723, 15.0137], [107.9721, 15.0119], [107.9828, 15.0076], [107.9901, 14.9985], [108.0033, 15.002], [108.0086, 14.9973], [108.0173, 15.0019], [108.0241, 14.9979], [108.0475, 14.9921], [108.0633, 14.9686], [108.069, 14.967], [108.0747, 14.9687], [108.083, 14.9663], [108.0871, 14.9626], [108.0865, 14.9557], [108.0885, 14.9514], [108.0949, 14.9528], [108.1072, 14.9514], [108.1181, 14.9592], [108.1227, 14.9603], [108.1333, 14.9585], [108.1379, 14.9617], [108.1492, 14.9624], [108.1622, 14.9738], [108.1593, 14.9792], [108.1554, 14.9968], [108.15, 15.0018], [108.1522, 15.0093], [108.1492, 15.0222], [108.1528, 15.0278], [108.1498, 15.0328], [108.1517, 15.0376], [108.1463, 15.0457], [108.1487, 15.0467], [108.1491, 15.0503], [108.1569, 15.0546], [108.1592, 15.0592], [108.1622, 15.0611], [108.1655, 15.0596], [108.1709, 15.0618], [108.1768, 15.0601], [108.1918, 15.0487], [108.1944, 15.0404], [108.1994, 15.0441], [108.2084, 15.0374], [108.2116, 15.0323], [108.2158, 15.0325], [108.2203, 15.0297], [108.2229, 15.0307], [108.2246, 15.0295], [108.2303, 15.0323], [108.23868394775026, 15.032000573294633], [108.24092865000017, 15.03412151300006], [108.24313354500009, 15.041179656999986], [108.24241638200016, 15.042971611000098], [108.23854065000012, 15.046861648], [108.23798370400004, 15.050024033000113], [108.23925781200012, 15.052664757000116], [108.24215698199998, 15.06488800000011], [108.2406158450001, 15.067082405], [108.2403182990002, 15.069628715000022], [108.23644256700015, 15.07481289000009], [108.23510742200006, 15.078227997000113], [108.24118804900002, 15.080139160000044], [108.24488830500013, 15.08318424200013], [108.2508316040001, 15.084119796000095], [108.2531814570001, 15.086000442000056], [108.2540588380001, 15.08782959000007], [108.25731659000002, 15.0906372070001], [108.2563171380001, 15.093447686000047], [108.25944519000012, 15.097309112000175], [108.25839233300013, 15.099286079000024], [108.25875091500012, 15.101115227000037], [108.26030731300011, 15.103810311000075], [108.25740814200014, 15.110612870000125], [108.25705719000007, 15.115303040000015], [108.25807952800011, 15.117238045000022], [108.26033020100004, 15.118255616000056], [108.26216125500002, 15.11951065200003], [108.2632827750001, 15.123755456000026], [108.26692199800004, 15.126397132000136], [108.26950836200018, 15.12674140900009], [108.27040863100012, 15.128645898], [108.27349090600018, 15.128633500000035], [108.27366638100006, 15.129980088000082], [108.2752304070001, 15.130999564999968], [108.27476501500018, 15.133681298000113], [108.27580261200012, 15.134858131000044], [108.27452850400005, 15.136617661000116], [108.27832031200006, 15.13701820500006], [108.27923584000013, 15.140028001000019], [108.27778625400009, 15.14076805100018], [108.27812957800012, 15.141908646000104], [108.27655029400017, 15.142199517000108], [108.27777862600004, 15.144747735000124], [108.28129577600004, 15.143837929000142], [108.28087615900006, 15.145658493000155], [108.28388977000009, 15.149322509000115], [108.28310394300019, 15.153047561000108], [108.28632354700011, 15.153715135000084], [108.28624725300006, 15.155851365000103], [108.2891998290001, 15.157438279000132], [108.28909301700014, 15.16026210900003], [108.29090881399998, 15.161328316000038], [108.29340362599999, 15.164798737000012], [108.29377746600005, 15.166810989000055], [108.2975921630001, 15.170115471000088], [108.2995910640002, 15.169634819000123], [108.30205535900006, 15.171226503000184], [108.30459594800004, 15.170956613000044], [108.3053283700001, 15.173315048000063], [108.30653381400015, 15.174144745000092], [108.29980468800011, 15.181815147], [108.30064392100019, 15.183543205000035], [108.30004882800006, 15.185491562000038], [108.30341339000006, 15.18816375700004], [108.30261230500014, 15.189698218999979], [108.30241394100005, 15.193036080000013], [108.29815673900009, 15.194933891000119], [108.29578399700006, 15.194499969000105], [108.29358673000007, 15.195055962000026], [108.29219055200019, 15.196228982000093], [108.291366578, 15.198243141000034], [108.29287719700005, 15.202462197000045], [108.2968978880001, 15.203535080000108], [108.29923248199998, 15.206486703000166], [108.304496766, 15.209691047999968], [108.3066253660001, 15.214818001000083], [108.30703735300017, 15.218220709999969], [108.30854797300009, 15.220744133000153], [108.3079071040001, 15.222736359000123], [108.30526733400018, 15.225976944000138], [108.29992675700015, 15.226872445000026], [108.29701233000014, 15.22821140300016], [108.2927703860002, 15.228247642000042], [108.2859497070001, 15.227103234000026], [108.28670501700009, 15.229338646000087], [108.28881835900012, 15.231110574000127], [108.28953552200005, 15.233675004000077], [108.28379821800019, 15.237072946000183], [108.28261566100014, 15.241233826000041], [108.28120422400013, 15.243469238000046], [108.28263854900007, 15.244599343000061], [108.28727722200006, 15.244883537000078], [108.29067230300006, 15.24651908900006], [108.2915725700002, 15.247441292000076], [108.29107666000004, 15.248974801000031], [108.29351806700015, 15.253011703000084], [108.30275726200017, 15.25795841200005], [108.30529785100015, 15.267152786000167], [108.3061370850001, 15.268181801000082], [108.30451202400002, 15.276759148000053], [108.29943084600006, 15.279005051000183], [108.30605316100008, 15.2890357980001], [108.31057739300013, 15.290906906000032], [108.31412506200013, 15.298103333000142], [108.31910705600006, 15.301218034000158], [108.32218933000019, 15.301589967000098], [108.32981109700012, 15.299915313000099], [108.33714294300012, 15.296529770000063], [108.3425369260001, 15.298404694999988], [108.35138702300009, 15.296099662000131], [108.35501861600011, 15.296851159000084], [108.35955810600018, 15.295205117000137], [108.3643417350001, 15.294440269000063], [108.3662796010002, 15.2977962490001], [108.37379455600018, 15.300603868000167], [108.3753051760001, 15.301916122000023], [108.37867736700014, 15.303380966000077], [108.38218688900008, 15.303370475000179], [108.38771057100007, 15.301850318999982], [108.39160156300017, 15.298756599000171], [108.39269256600011, 15.298686028000077], [108.402870178, 15.300258637000127], [108.40296173000013, 15.308794975000126], [108.40985107500006, 15.312784196000052], [108.41162872400014, 15.316236496000045], [108.41477203300008, 15.316727638000032], [108.41897583000014, 15.31612491500016], [108.42257690400004, 15.313066482000124], [108.42673492400019, 15.315749168000082], [108.42823791500012, 15.32192039400013], [108.42823791500012, 15.325289727000154], [108.42937469500004, 15.326236724000069], [108.43553924600019, 15.325917244000095], [108.43565368700013, 15.316716195000026], [108.43881225500019, 15.31204032900007], [108.44176483100006, 15.312927246000186], [108.44730377300004, 15.312361716999987], [108.45043945200007, 15.310340882000048], [108.45867157000009, 15.310329438000167], [108.46162414600019, 15.309612275000063], [108.46566772600005, 15.31052875600011], [108.46813964900002, 15.310631753000052], [108.47000884900018, 15.309812547000092], [108.47446441600016, 15.31031322500013], [108.4777145380001, 15.31252670400005], [108.47859191900017, 15.309233665000022], [108.48241424600013, 15.307955742000047], [108.48753357000004, 15.309679986000049], [108.48883819600013, 15.31167602700009], [108.49505615300012, 15.315169335000121], [108.49720764100016, 15.318751336000105], [108.49707031200006, 15.32007026700012], [108.4983901970001, 15.323403359], [108.49992370600006, 15.324501038000164], [108.50698852500011, 15.325820922000105], [108.51535034200015, 15.321924210000134], [108.51861572200016, 15.323083879000023], [108.52645874000018, 15.320174216999987], [108.52838897700013, 15.323102952000113], [108.53021240300018, 15.324286460000167], [108.53443908600002, 15.329346657000087], [108.54338073700012, 15.33327007400004], [108.54438781700014, 15.335878373000128], [108.54550170900006, 15.336394310000117], [108.54951477000003, 15.335120201000109], [108.55299377500006, 15.336340905000043], [108.55685424900008, 15.334367753000038], [108.5605316160001, 15.334524155000167], [108.56774139400017, 15.338730812000165], [108.57173156800008, 15.34261226700005], [108.57364654600008, 15.342986107000058], [108.57450103800011, 15.342153550000035], [108.57571411200007, 15.34410858200016], [108.58208465600018, 15.344826698000077], [108.58742523100017, 15.343154907000041], [108.59171295200008, 15.346974373000023], [108.59594726600017, 15.344204903000048], [108.60247039900014, 15.345818519000147], [108.60178375200007, 15.350654603000066], [108.60256958100018, 15.35250663800008], [108.60625457800018, 15.35226059100006], [108.61495208600019, 15.353425026000025], [108.62030792200011, 15.355468751000103], [108.62329101500012, 15.357586861000073], [108.62714386000016, 15.358257294], [108.63061523500005, 15.357507707000082], [108.63254547100007, 15.35924625400014], [108.63421630900012, 15.362833024000054], [108.63969421300004, 15.36416339900012], [108.64198303300003, 15.36793136600005], [108.64450073300014, 15.368144035000114], [108.64875793500016, 15.367016793000118], [108.65483093200004, 15.368703842000173], [108.65600586000005, 15.366192819000162], [108.65889740000006, 15.365737915000182], [108.66095733700001, 15.367088318000071], [108.66190338100017, 15.369670869000174], [108.665420531, 15.366020203000062], [108.67238617000004, 15.36419296300005], [108.67588043100005, 15.368230820000122], [108.67835998500004, 15.369185449000156], [108.67954254100016, 15.368997573000058], [108.68015289400012, 15.366774559000135], [108.6814804080002, 15.366559983000172], [108.68533325200013, 15.367600442000025], [108.68769073500005, 15.369239807000042], [108.69044494600013, 15.368096351000077], [108.69465637100012, 15.369634628000085], [108.69863128700007, 15.36991024100007], [108.70118713400007, 15.373223306], [108.70632934600008, 15.371061325000085], [108.71016693100006, 15.370843887000035], [108.71371459900013, 15.370665551000059], [108.72135162400008, 15.3748369220001], [108.72203837700016, 15.375872746000027], [108.7291671110001, 15.38471040200011], [108.73420288500017, 15.39095336700018], [108.73512268000019, 15.392093658000135], [108.7354049540001, 15.392606576999981], [108.73627116100005, 15.394180557000027], [108.7389602240001, 15.399066847000029], [108.7492830000001, 15.391994], [108.754364, 15.389749000000108], [108.7653880000002, 15.386690000000101], [108.7709880000001, 15.387504000000149], [108.7714390000001, 15.386024], [108.77455900000018, 15.383892], [108.77575700000017, 15.384196998999982], [108.776924, 15.384496000000127], [108.777473, 15.38624699900015], [108.77632899900016, 15.389074], [108.77751200100016, 15.389162], [108.777649, 15.391943], [108.7788240000001, 15.391582], [108.77976999900011, 15.388958], [108.78000600000018, 15.39221999900019], [108.78692600100015, 15.392180000000167], [108.787178, 15.39270199900011], [108.788055, 15.392118], [108.78820000000013, 15.389653999000132], [108.79433399900006, 15.391676999000026], [108.80477142299998, 15.398527146000049], [108.80792236400004, 15.404786110000089], [108.80792236400004, 15.407310486000085], [108.806282044, 15.409137726000097], [108.80576324500015, 15.40756893300005], [108.8046722410001, 15.408462525000118], [108.803726197, 15.407931327000028], [108.80239868200005, 15.408568382000055], [108.80159759500009, 15.409288406000144], [108.80177307100007, 15.412119866000126], [108.80091857800016, 15.41113472000012], [108.79859161400015, 15.41239357100011], [108.7995071420001, 15.413245201000052], [108.79853820900013, 15.413216590000047], [108.79879760800014, 15.415334702000166], [108.79705810500002, 15.414532662000056], [108.79567718500016, 15.41529369500006], [108.79592895400015, 15.416467667000063], [108.79483795100003, 15.417251587000067], [108.79698181100014, 15.42060279900005], [108.79631805500009, 15.42266655000003], [108.79753875699998, 15.422657967000077], [108.798545837, 15.424056053000129], [108.79931640600012, 15.423980714000038], [108.79999542200017, 15.422951699000066], [108.79886627200017, 15.422651292000182], [108.79897308400012, 15.421098709000034], [108.80277252200005, 15.416853905000039], [108.80597686800019, 15.414179802000035], [108.81164550800003, 15.412050248000014], [108.81429290700015, 15.412436486], [108.81409454300007, 15.412931442000115], [108.81584930500014, 15.413960457000087], [108.81665802000003, 15.415556907000166], [108.81861114500003, 15.416622162000124], [108.81851196200012, 15.41780853300014], [108.81952667200005, 15.418581009000093], [108.82166290300012, 15.417842864000022], [108.82624054000007, 15.418601036999974], [108.82677459700011, 15.417479515000082], [108.82779693500015, 15.417243958000029], [108.8279647830002, 15.415984154000114], [108.82733154300001, 15.416235924000148], [108.82714843700018, 15.41482544000013], [108.82569885200002, 15.41425704900007], [108.82583618100011, 15.41312694600009], [108.82446289100017, 15.413598060000027], [108.82244873000008, 15.412224771000183], [108.822212218, 15.406551360000151], [108.82359314000007, 15.406583787000102], [108.82388305700016, 15.402934075000076], [108.82527923700002, 15.400987625000141], [108.82666778499998, 15.400573730000076], [108.82644653400007, 15.398917198000163], [108.82939911000011, 15.397576332000085], [108.83113861100009, 15.399246215000119], [108.83118438600002, 15.395540237000091], [108.83228301999998, 15.392499924000163], [108.829742431, 15.387574196000116], [108.82979583800011, 15.386501313000053], [108.828819275, 15.385729790000084], [108.82912445000011, 15.385005951000153], [108.827316285, 15.383706092000125], [108.82681274400016, 15.37919426000002], [108.8364715570001, 15.364540100999989], [108.84035491900005, 15.358931541000118], [108.84909057500005, 15.349797248000073], [108.85131072900003, 15.348369599000023], [108.85419464200004, 15.348528861000034], [108.85513305600006, 15.346908569999982], [108.85678863600009, 15.34627628300018], [108.8604583730002, 15.347765923000168], [108.86555480900017, 15.353319167999985], [108.86671447800012, 15.35336113000011], [108.86833190900012, 15.351331710000068], [108.87082672100013, 15.351767540000026], [108.87006378100006, 15.348248483000134], [108.86764526400003, 15.346095085000115], [108.86589813300014, 15.346616744000187], [108.86405181900017, 15.343917847000057], [108.86378478900008, 15.340404510999974], [108.86553955100015, 15.335303307000174], [108.86787414500009, 15.332002639000109], [108.87007141100014, 15.33042717], [108.87256622300015, 15.330437661000076], [108.87855529799998, 15.328065872000082], [108.88217926100009, 15.32862663300017], [108.88275146500018, 15.32807636300015], [108.8824615490002, 15.326093675000038], [108.88407135000006, 15.32493686800018], [108.88303375300006, 15.325226784000165], [108.8820648200001, 15.324561118000133], [108.88127899100004, 15.325142860000142], [108.879997253, 15.324322702000131], [108.88130951000016, 15.322148323000079], [108.88073730500014, 15.318616867000117], [108.87901306200001, 15.316255569000134], [108.87628173900009, 15.31490039800019], [108.87532806500008, 15.311719894000078], [108.87241363600003, 15.308320045000073], [108.87134552000015, 15.306251525000164], [108.87152862599999, 15.30498886100014], [108.86952972300008, 15.30202293400015], [108.8703689570001, 15.298039438000046], [108.87317657400013, 15.29250049600006], [108.88977813700018, 15.268511772000124], [108.8978805540001, 15.258592607000026], [108.903297, 15.253371], [108.9092560000002, 15.248987], [108.91752600000018, 15.244856], [108.922462, 15.244493], [108.92478200000016, 15.245925], [108.92607900000019, 15.248901], [108.927078, 15.248815], [108.92964900000015, 15.246536000000162], [108.93335000000013, 15.245837], [108.9349440000002, 15.246321000000137], [108.93539400000014, 15.24770000000018], [108.936523, 15.248025], [108.93763700000011, 15.247332], [108.936623, 15.246689000000174], [108.93730900000014, 15.245953], [108.936836, 15.244941000000154], [108.94042200000013, 15.242562000000135], [108.93980400000015, 15.239545], [108.941353, 15.237959000000103], [108.94089500000018, 15.237007], [108.94160500000015, 15.236389], [108.94141400000012, 15.23523500000016], [108.94384000000014, 15.235414], [108.942032, 15.234052000000133], [108.940376, 15.230864000000167], [108.940964, 15.22705], [108.936539, 15.224594], [108.93634, 15.222902], [108.93751500000013, 15.221999000000153], [108.935219, 15.218576], [108.93525700000015, 15.216633], [108.9305340000002, 15.212054], [108.927757, 15.210346000000186], [108.926819, 15.210452], [108.92498800000016, 15.211232000000109], [108.92295100000018, 15.2138920000001], [108.92125700000014, 15.214707], [108.91794600000014, 15.213959000000159], [108.91487884500009, 15.212180137000132], [108.91429901100008, 15.211944581000182], [108.91780090300011, 15.208686828], [108.91796875000006, 15.20598697700018], [108.92106628300007, 15.20598697700018], [108.9222183220001, 15.205271720999974], [108.92252349900008, 15.203612328000077], [108.91697692900016, 15.200583458000096], [108.9155120850001, 15.205162048000034], [108.91220855800003, 15.206234933000076], [108.90752410900012, 15.205523490000132], [108.90113830600018, 15.201457977000075], [108.89749908400012, 15.196497917000045], [108.89494323700012, 15.18818092500004], [108.89458465500013, 15.179413796], [108.89545440800009, 15.168454171000121], [108.89891815200014, 15.149591447000148], [108.89714813200004, 15.143496514000049], [108.89926147400013, 15.141454698000075], [108.90129852400008, 15.140960694000057], [108.89935302800006, 15.140749932000176], [108.89833831800013, 15.138749123000082], [108.89690399099999, 15.128491403000112], [108.90248107900015, 15.10289192300013], [108.90183258100012, 15.099358558000063], [108.90332794200015, 15.097225190000131], [108.90353393600014, 15.093529702000069], [108.90280914300013, 15.085050582000179], [108.90369415400005, 15.07831096700005], [108.90802764900008, 15.062678337000136], [108.91241455000005, 15.043306351000126], [108.91366577100007, 15.040873527000088], [108.91365814100016, 15.038404464000166], [108.91783142100013, 15.024143218], [108.92028045600017, 15.015631676999988], [108.92084503199999, 15.015425682000114], [108.92047882100019, 15.014450074000024], [108.9216156010001, 15.011011123000173], [108.93156433000019, 14.981103897000082], [108.9390335080002, 14.961097717000143], [108.95629882900005, 14.918281555000135], [108.9780731190001, 14.87134933600015], [108.98949432400019, 14.84829425800018], [108.99923706100009, 14.83118057300004], [109.00071716300016, 14.829019547000087], [109.00026702900004, 14.827661514000113], [109.0026779170002, 14.82099628400016], [109.02251434400006, 14.787100793000093], [109.02857971100013, 14.776061058000153], [109.03926086400008, 14.759097099000087], [109.04722595200008, 14.748311043000115], [109.05602264400017, 14.734493256000178], [109.05727386500007, 14.733765602000176], [109.0690460200002, 14.714971543000104], [109.07186126700014, 14.71095657300009], [109.07317352300004, 14.710652351000135], [109.07293701200007, 14.708923340000126], [109.0737228390002, 14.707375527000067], [109.0747146600001, 14.706195832000049], [109.07649993900009, 14.70576190900016], [109.0779418940001, 14.702064514000028], [109.07768249500003, 14.696826935], [109.07571411200018, 14.697391510000102], [109.07480621400003, 14.696949959000051], [109.0741577140002, 14.693571089999978], [109.08044433600003, 14.679255485000056], [109.08281707800006, 14.678853988000185], [109.08243560700004, 14.6767826090001], [109.08364105100014, 14.675362587000052], [109.08309936600017, 14.674343109000063], [109.08393859800015, 14.672257424000065], [109.08320617600015, 14.668296814000087], [109.08238220200013, 14.667291641000133], [109.07887268000002, 14.66662597800007], [109.07603454500014, 14.664784430999987], [109.07362365700016, 14.66668987300011], [109.07128906200018, 14.666486740999972], [109.07028961300017, 14.668568611000126], [109.06949615600013, 14.668649673000061], [109.07019043100013, 14.665484429], [109.06695556700015, 14.663206100000082], [109.06570434600008, 14.658416748000093], [109.065353394, 14.649640084000112], [109.06702423000007, 14.640059471000086], [109.0681228640002, 14.635864259000073], [109.06996917800018, 14.63523101900006], [109.07066345300018, 14.633479119000071], [109.06919860900013, 14.629380227000013], [109.07118225, 14.621859550000124], [109.0740890510001, 14.618663788000049], [109.073883056, 14.617444993000163], [109.07255554200015, 14.618641853999975], [109.071327209, 14.618021965000139], [109.07035827600004, 14.614953994000018], [109.07054901000004, 14.61219120000004], [109.07183075, 14.610671043000139], [109.07177734300012, 14.60916233000006], [109.07336425699998, 14.606635094000069], [109.07229614200014, 14.6023645410001], [109.0798950200001, 14.582583427000145], [109.08196258500016, 14.581555366000089], [109.08216858000009, 14.580631256], [109.081352234, 14.579771043000164], [109.0821304330002, 14.577937127000098], [109.07942199600018, 14.579824448000068], [109.07392883300014, 14.581121446000054], [109.06646728599998, 14.588975907000076], [109.06266021800013, 14.590384483000093], [109.06012725900007, 14.59006500300012], [109.05553436200012, 14.598375320000173], [109.05545806800018, 14.600081444000125], [109.053840637, 14.602048874000047], [109.05377960200002, 14.603230477000182], [109.0483703610002, 14.603579521000086], [109.04782867500012, 14.606884003000118], [109.04447937100014, 14.608183862000146], [109.04472350999998, 14.611163139000155], [109.04492187400007, 14.61337089500006], [109.04656982400019, 14.61624431700011], [109.04242706200006, 14.623703004000049], [109.04314422600004, 14.624794007], [109.04529571500018, 14.624771119000059], [109.04595947300004, 14.62798977], [109.04405975400016, 14.631043435000151], [109.0429763800002, 14.634624481000174], [109.0391845700002, 14.63864231100007], [109.0359115600001, 14.640138626000123], [109.03856658900014, 14.640640260000112], [109.03694915800014, 14.643681527000126], [109.0353698740002, 14.644830704000071], [109.03450775100004, 14.647243500000059], [109.03185272200017, 14.647513389999972], [109.03032684300013, 14.645350456000074], [109.0269927970001, 14.646157266000046], [109.02790832500006, 14.649296761000187], [109.02565765400004, 14.651176454], [109.02494812100008, 14.653842926000038], [109.02176666200018, 14.656737327000144], [109.02126312300015, 14.658236504000115], [109.01766967700001, 14.659019471000136], [109.01792144700005, 14.662508012000046], [109.01704406800002, 14.664800645000128], [109.0143356330002, 14.664786339000159], [109.01246643100012, 14.666926384000021], [109.00787353600015, 14.669123650000131], [109.00624847400013, 14.668877601000077], [109.00301361100009, 14.66687488700012], [108.99893188400017, 14.668040276], [108.99447631800007, 14.67278385100019], [108.98857116600016, 14.670599937000134], [108.9816894540001, 14.670411110000089], [108.97924041700003, 14.669240953000156], [108.97373962400013, 14.671832084000016], [108.97370147700008, 14.674112321000166], [108.96964263900014, 14.677636146000111], [108.96854400500018, 14.67972373900011], [108.959449769, 14.68553352400005], [108.95864105100009, 14.682698251000033], [108.95496368400018, 14.680287361000182], [108.95478057800011, 14.682595252999988], [108.95030212300003, 14.684064865000096], [108.95072937000015, 14.685986520000029], [108.95016479400016, 14.686856271000124], [108.94731903100012, 14.68656826], [108.94590759200014, 14.688199044000157], [108.94454956100014, 14.687741280000068], [108.9424667360002, 14.688813210000149], [108.94004821800013, 14.69384098100005], [108.93193054200009, 14.697133065000116], [108.93034362800006, 14.69709015], [108.92929840099998, 14.696108819000074], [108.92742919900007, 14.698953628000027], [108.92740631000004, 14.699806213000102], [108.92886352600016, 14.701119424000183], [108.92850494400017, 14.702920914000174], [108.9254150390002, 14.700026513000068], [108.92558288500004, 14.69846153200018], [108.91963958800011, 14.69584464999997], [108.91773223900009, 14.693248750000123], [108.91313171400003, 14.692253113000106], [108.90724182000014, 14.689791681000031], [108.905578612, 14.685891151000021], [108.90074157800018, 14.684713363000128], [108.89778900200014, 14.685426711000162], [108.89466095000012, 14.68498420800006], [108.89268493600008, 14.684516906000113], [108.88963317800017, 14.681134225000108], [108.88476562500006, 14.682985307000138], [108.87807464600019, 14.684078218000082], [108.87692260699998, 14.685276984000097], [108.87483215400016, 14.685754777000113], [108.87504577600004, 14.687141419000113], [108.87367248500004, 14.689092636000169], [108.8705520630001, 14.689219474000026], [108.86922454900008, 14.690549851000014], [108.86481475700003, 14.692584992000093], [108.86147308300013, 14.69266891500007], [108.86055755500007, 14.691212655000186], [108.85835266200013, 14.690357208000023], [108.85402679400016, 14.690554619000068], [108.85253906200018, 14.688614846000064], [108.8519973760001, 14.685431481000023], [108.85088348400012, 14.684575081000048], [108.85196685800008, 14.683372498000097], [108.85169220000012, 14.682473183000013], [108.84846496600005, 14.681049346000066], [108.84690094000013, 14.681403160000059], [108.84601593100018, 14.68297863100014], [108.84772491400008, 14.684643745000017], [108.842117309, 14.691805840000143], [108.8391723630001, 14.69308948500003], [108.83541870200008, 14.689888955000072], [108.83479309, 14.686724662000188], [108.83216095, 14.682788850000122], [108.8313751230001, 14.680226325000092], [108.8285903920002, 14.676515579000068], [108.82608795200008, 14.674511910000092], [108.82279205300011, 14.675507546000063], [108.82178497300009, 14.673995973000103], [108.81491851900006, 14.67106628400012], [108.81342315600006, 14.668858528000044], [108.8103408820001, 14.669837951000147], [108.80731201200012, 14.667923928000164], [108.80222320600006, 14.66945266800019], [108.79896545400004, 14.667267800000047], [108.79367828400007, 14.668305396999983], [108.79029846300011, 14.667980194], [108.787017822, 14.669559480000146], [108.7817459100001, 14.668782234000105], [108.7777786260001, 14.672533989000101], [108.77602386400002, 14.673012734000054], [108.7719039910001, 14.676098824000121], [108.76902771099998, 14.67598533600011], [108.76763153100012, 14.67241668700018], [108.76467132700014, 14.671789170000068], [108.76214599600019, 14.66720294999999], [108.75975799600013, 14.66595363600004], [108.7604293830002, 14.663354874000106], [108.76158905000011, 14.661894799000038], [108.76220703100017, 14.65481948900009], [108.76441955500007, 14.65015506800006], [108.76482391400009, 14.646928787000036], [108.76406097400019, 14.64465904300016], [108.76552581700014, 14.642196655000191], [108.76452636800013, 14.636581422000177], [108.76683044300012, 14.626278877000118], [108.76612854000018, 14.621016503000078], [108.76214599600019, 14.619269371000144], [108.76200103700018, 14.61549091400002], [108.76128387500017, 14.614601135000044], [108.76205444400006, 14.607977867000045], [108.76174926800007, 14.604571341999986], [108.76357269300019, 14.601920128000017], [108.76380157400001, 14.598675729000092], [108.76060485900013, 14.59817409500016], [108.75842285200014, 14.59449482000008], [108.75650024400005, 14.59329891200008], [108.74841308499998, 14.590565681000157], [108.74419403000007, 14.590431215000024], [108.74283599900002, 14.593126296000037], [108.74170684800015, 14.594001770000148], [108.74085235600012, 14.593689920000088], [108.73986816500013, 14.591753959000073], [108.7401046760001, 14.589960098000063], [108.73720550500013, 14.587693214000069], [108.73317718600015, 14.588250160000143], [108.73233795200014, 14.589826584000036], [108.73015594499998, 14.591279030000123], [108.7284469600001, 14.593044282000164], [108.72651672400008, 14.593601226000033], [108.72573852500005, 14.59528160200017], [108.72386932500012, 14.594137191000073], [108.72281646800013, 14.59456062300012], [108.72114563000014, 14.59607696500018], [108.71845245400004, 14.597104073000082], [108.71818542400013, 14.598813057000086], [108.71645355200019, 14.600527763], [108.70881652700007, 14.603499412000133], [108.70687866100013, 14.606194496], [108.70677947900009, 14.608023644000184], [108.70574188300003, 14.608648301000073], [108.70753479000018, 14.611638069000037], [108.7050094610002, 14.613603593000107], [108.70199585000017, 14.611186027000088], [108.7023620600001, 14.604254723], [108.70076751700003, 14.603578568000103], [108.70057678100005, 14.60043239600003], [108.69927215500013, 14.60009098], [108.69940185600012, 14.598920823000128], [108.69783020000011, 14.597884179000118], [108.6980972300002, 14.595500947000119], [108.69020080500007, 14.591452598000103], [108.6865081790001, 14.59225273200002], [108.6846160880001, 14.594374657], [108.68045806800018, 14.595982552000066], [108.67794799800015, 14.591228485000102], [108.67549896300011, 14.588766099000111], [108.67713165200007, 14.586984636000068], [108.67720031800008, 14.584103584000104], [108.67371368500017, 14.580177307000042], [108.6708145140002, 14.578148842000132], [108.6676330570001, 14.57875919300011], [108.66048431500013, 14.575301171000149], [108.65273284900007, 14.569234849000054], [108.6514282230001, 14.56698513100008], [108.64713287400008, 14.568069459000071], [108.64342498800005, 14.564816475000043], [108.64015197700007, 14.563848496000162], [108.6436691290001, 14.557066919000135], [108.6422424320001, 14.552330017000031], [108.64282989500015, 14.548272134000115], [108.64174652200012, 14.546649933000083], [108.63373565600006, 14.551177978], [108.63150024400016, 14.551036834000058], [108.62794494700006, 14.549152375], [108.62722778400018, 14.546670914000117], [108.62819671700015, 14.545452117000082], [108.62757110500007, 14.543732644000045], [108.62187957800012, 14.541027069999984], [108.62042999300019, 14.541893960000152], [108.61856079000017, 14.540882110999974], [108.6177749630001, 14.53617096], [108.61316681000011, 14.531601906000162], [108.61180877700008, 14.533493997000107], [108.6079711920001, 14.532798767000145], [108.60642242400019, 14.533498764000058], [108.60369110100004, 14.535589218000041], [108.60234832800006, 14.539740562000134], [108.59559631400009, 14.54645919900014], [108.5967025760001, 14.553627968000058], [108.59365844800016, 14.56027793900006], [108.59400177000015, 14.563625335999973], [108.59333038300008, 14.564313889], [108.583755494, 14.567149162000078], [108.58186340300006, 14.569177629000137], [108.57990264900019, 14.57006836], [108.57486724800003, 14.570912360000023], [108.57295990100005, 14.572629928000026], [108.57282257200012, 14.576128007000023], [108.57099151600016, 14.577994347000072], [108.56629943900015, 14.578981401000021], [108.56024932800005, 14.584165574000053], [108.55513763400006, 14.58540248900016], [108.55129242000004, 14.584403992000091], [108.54756164600008, 14.589048385000012], [108.53952789200008, 14.595881463000183], [108.53702545200014, 14.60061264], [108.53451460432096, 14.602742699951635], [108.5395, 14.5959], [108.5476, 14.589], [108.5323, 14.5776], [108.5298, 14.569], [108.5313, 14.566], [108.5282, 14.5553], [108.5134, 14.5505], [108.5052, 14.5448], [108.489, 14.5441], [108.4584, 14.5529], [108.438, 14.5554], [108.4271, 14.5649], [108.4155, 14.5708], [108.4093, 14.5896], [108.3981, 14.6008], [108.3938, 14.6024], [108.3921, 14.6], [108.3859, 14.6022], [108.3826, 14.5984], [108.3749, 14.6009], [108.3671, 14.5856], [108.3582, 14.5801], [108.357, 14.5698], [108.3594, 14.5656], [108.3593, 14.5628], [108.3676, 14.5564], [108.3739, 14.5486], [108.3735, 14.5411], [108.3715, 14.5369], [108.3779, 14.5284], [108.383, 14.5261], [108.3833, 14.5204], [108.38, 14.5138], [108.3682, 14.5029], [108.364, 14.4948], [108.332, 14.463], [108.3303, 14.4588], [108.3267, 14.4577], [108.3243, 14.4535], [108.3236, 14.4419], [108.3165, 14.4342], [108.3125, 14.4321], [108.3062, 14.4218], [108.2976, 14.417], [108.2917, 14.4057], [108.2958, 14.3999], [108.2966, 14.392], [108.2862, 14.3881], [108.2812, 14.3888], [108.2756, 14.386], [108.27, 14.388], [108.2666, 14.3864], [108.2599, 14.3901], [108.2525, 14.39], [108.2431, 14.3974], [108.239, 14.3923], [108.2324, 14.3893], [108.2293, 14.3919], [108.2252, 14.3903], [108.2206, 14.391], [108.2137, 14.3866], [108.2094, 14.3867], [108.2043, 14.3807], [108.203, 14.3747], [108.1984, 14.3766], [108.1986, 14.373], [108.1929, 14.3739], [108.1875, 14.368], [108.182, 14.3694], [108.176, 14.3666], [108.1698, 14.3682], [108.166, 14.3645], [108.1635, 14.3646], [108.1625, 14.3619], [108.1604, 14.3631], [108.1554, 14.3536], [108.1517, 14.3534], [108.1516, 14.351], [108.1539, 14.3491], [108.1487, 14.3489], [108.147, 14.3475], [108.1422, 14.3535], [108.1463, 14.3562], [108.148, 14.3557], [108.1494, 14.3603], [108.1396, 14.3602], [108.1395, 14.3569], [108.1346, 14.3553], [108.1258, 14.3572], [108.1183, 14.363], [108.1155, 14.3633], [108.1085, 14.3535], [108.1122, 14.3455], [108.1102, 14.3444], [108.107, 14.3453], [108.1046, 14.3436], [108.1044, 14.3376], [108.0994, 14.3353], [108.079, 14.3331], [108.078, 14.3299], [108.0806, 14.327], [108.0875, 14.3241], [108.0874, 14.3178], [108.0889, 14.3147], [108.0846, 14.313], [108.0811, 14.3136], [108.0812, 14.3103], [108.073, 14.3054], [108.0732, 14.3006], [108.0709, 14.2985], [108.072, 14.2945], [108.067, 14.2855], [108.0687, 14.2835], [108.0587, 14.2678], [108.06, 14.2655], [108.0457, 14.273], [108.043, 14.2769], [108.0397, 14.2767], [108.0348, 14.2736], [108.0344, 14.2686], [108.031, 14.2661], [108.0237, 14.2539], [108.0175, 14.2494], [108.0157, 14.2425], [108.0123, 14.2406], [108.0073, 14.2398], [108.0005, 14.2451], [107.9894, 14.2459], [107.98, 14.2432], [107.9729, 14.2372], [107.9494, 14.243], [107.9333, 14.2409], [107.9282, 14.2458], [107.9193, 14.2599], [107.9135, 14.2627], [107.9029, 14.2746], [107.8971, 14.2782], [107.8768, 14.2824], [107.8728, 14.2762], [107.8679, 14.2767], [107.8603, 14.2733], [107.8555, 14.2757], [107.8501, 14.2754], [107.849, 14.2729], [107.8384, 14.2695], [107.8362, 14.2672], [107.8352, 14.2644], [107.8378, 14.2346], [107.8345, 14.2318], [107.8283, 14.2329], [107.8266, 14.2273], [107.8235, 14.2243], [107.8215, 14.2248], [107.8199, 14.2218], [107.8209, 14.2179], [107.8175, 14.2137], [107.8069, 14.2126], [107.7992, 14.2198], [107.7941, 14.2217], [107.7897, 14.221], [107.7871, 14.2244], [107.7837, 14.2255], [107.7785, 14.2162], [107.7733, 14.2191], [107.7701, 14.2148], [107.7638, 14.2132], [107.7636, 14.2043], [107.7601, 14.2022], [107.7479, 14.2072], [107.7405, 14.2082], [107.7234, 14.2157], [107.7156, 14.2135], [107.7071, 14.2168], [107.6995, 14.2155], [107.6918, 14.2205], [107.6878, 14.2211], [107.6836, 14.2064], [107.6782, 14.2], [107.6782, 14.1884], [107.6708, 14.1758], [107.6625, 14.1702], [107.6584, 14.1636], [107.6609, 14.1577], [107.6606, 14.1476], [107.6652, 14.1376], [107.6611, 14.1307], [107.6603, 14.1203], [107.6581, 14.115], [107.6576, 14.1034], [107.6504, 14.1019], [107.6485, 14.0991], [107.649, 14.0964], [107.6548, 14.0906], [107.6574, 14.085], [107.6509, 14.0761], [107.65, 14.0665], [107.6419, 14.0627], [107.6334, 14.0537], [107.6257, 14.0559], [107.6162, 14.0637], [107.614, 14.0634], [107.6128, 14.0536], [107.6015, 14.0458], [107.6007, 14.0292], [107.5924, 14.0223], [107.5792, 14.0192], [107.5704, 14.019], [107.5657, 14.0217], [107.5574, 14.0213], [107.553, 14.0251], [107.5511, 14.0251], [107.5458, 14.0217], [107.5441, 14.0133], [107.5417, 14.0113], [107.5338, 14.0114], [107.5241, 14.0144], [107.5212, 14.0135], [107.5212, 14.0055], [107.5266, 13.9855], [107.5257, 13.9824], [107.5124, 13.9841], [107.502, 13.9708], [107.4991, 13.9705], [107.4892, 13.9625], [107.4766, 13.959], [107.4703, 13.9542], [107.4688, 13.9517], [107.4701, 13.9346], [107.4615, 13.9295], [107.4588, 13.9224], [107.455, 13.9283], [107.4532, 13.9309], [107.4558, 13.9617], [107.4557, 13.9795]], [[108.2456283570001, 15.029700279], [108.24558938164513, 15.02970353945162], [108.2456, 15.0297], [108.24565260244123, 15.029659708768415], [108.2456283570001, 15.029700279]], [[108.25029108626323, 15.026072070291494], [108.25023236702457, 15.025888083343629], [108.25032806500008, 15.026055336000127], [108.25029108626323, 15.026072070291494]], [[108.250694275, 15.022290229000077], [108.24881070632019, 15.021433546469908], [108.2488, 15.0214], [108.25172909770572, 15.021985819541143], [108.250694275, 15.022290229000077]], [[108.25428212574451, 15.019375981469187], [108.25425652296768, 15.019341577737816], [108.25428772100014, 15.019370079000055], [108.25428212574451, 15.019375981469187]], [[108.25111389199998, 15.01510620200014], [108.25111590470514, 15.015121371947556], [108.2511, 15.0151], [108.25436737156767, 15.006162777770761], [108.25111389199998, 15.01510620200014]], [[108.26012420700005, 15.002987862000055], [108.259223937, 15.003915788000086], [108.25741291716932, 15.004622437740066], [108.2592, 15.0039], [108.26021215334697, 15.00244061610437], [108.26012420700005, 15.002987862000055]], [[108.26708221500007, 14.986649514000021], [108.26460266100008, 14.988901139000063], [108.26417612115895, 14.992291030728328], [108.2646, 14.9889], [108.26913118188497, 14.982201731126551], [108.26708221500007, 14.986649514000021]], [[108.27890499783756, 14.976302498918786], [108.28163431468361, 14.97766715734181], [108.28060150100009, 14.977780343000063], [108.27890499783756, 14.976302498918786]], [[108.28432464600002, 14.973443032000091], [108.28213966004112, 14.976972869931993], [108.2843, 14.9734], [108.28429682351454, 14.97331105840685], [108.28432464600002, 14.973443032000091]], [[108.2880706790001, 14.963588715000014], [108.28650665300017, 14.964035989000081], [108.28404998800005, 14.965017320000186], [108.28487396200018, 14.96805572500017], [108.2841680118584, 14.969704332035175], [108.284, 14.965], [108.28806642993287, 14.96263806165576], [108.2880706790001, 14.963588715000014]], [[108.30056279963121, 14.955379691232173], [108.3006977110885, 14.955301329487515], [108.30068969800016, 14.955313683000156], [108.30056279963121, 14.955379691232173]], [[108.30442143308171, 14.950076888368509], [108.30852581993747, 14.947903977680161], [108.30773925800008, 14.948696138000173], [108.30442143308171, 14.950076888368509]], [[108.31250762900015, 14.94583416100005], [108.31160736200019, 14.946490287000188], [108.31117393556966, 14.94650203411018], [108.3125, 14.9458], [108.31253542782663, 14.94572261816816], [108.31250762900015, 14.94583416100005]], [[108.31542851681571, 14.939403502744629], [108.31625706343193, 14.93759378250394], [108.31614685000011, 14.938571931000126], [108.31542851681571, 14.939403502744629]], [[108.3165206920001, 14.934543610000162], [108.31632254959352, 14.934531687572587], [108.3165, 14.9345], [108.31663652161136, 14.934011396338294], [108.3165206920001, 14.934543610000162]], [[108.32035827700014, 14.929313660000162], [108.3183982020189, 14.927706434879715], [108.3184, 14.9277], [108.3203876785549, 14.929290142843907], [108.32035827700014, 14.929313660000162]], [[108.32142639200009, 14.926802635000115], [108.32171630800013, 14.92822742400017], [108.3208258236482, 14.928939687682297], [108.3217, 14.9282], [108.32022118472865, 14.926772178358702], [108.32142639200009, 14.926802635000115]], [[108.31882476800013, 14.925377845000185], [108.31884976371872, 14.925448047728421], [108.3188, 14.9254], [108.31949188573324, 14.92470811426675], [108.31882476800013, 14.925377845000185]], [[108.3215026850001, 14.922689439000123], [108.32149673810645, 14.922695409186861], [108.31932228223863, 14.919635063891407], [108.3208389290001, 14.920089722000057], [108.3215026850001, 14.922689439000123]], [[108.31884765600012, 14.918878556000038], [108.31892187769323, 14.919071531568258], [108.3188, 14.9189], [108.3188505186871, 14.918842891918922], [108.31884765600012, 14.918878556000038]], [[108.32060115093918, 14.913798369502826], [108.32112884500009, 14.916332246000024], [108.32095175191813, 14.916467584788197], [108.3211, 14.9163], [108.3206, 14.9138], [108.32060115093918, 14.913798369502826]], [[108.32065846963786, 14.913717168013035], [108.32216020855792, 14.911589704542946], [108.321983338, 14.912663459000157], [108.32065846963786, 14.913717168013035]], [[108.33616145967727, 14.903719758525726], [108.3378, 14.8996], [108.33782699860133, 14.89959405115564], [108.33616145967727, 14.903719758525726]], [[108.34949473631188, 14.89702319369399], [108.34957983173346, 14.897004443855337], [108.34956359800009, 14.897027969000021], [108.34949473631188, 14.89702319369399]], [[108.35435060971156, 14.878757356858268], [108.35111999600008, 14.880130768000186], [108.34962463300008, 14.88600540200008], [108.35067749000007, 14.888136865000092], [108.35091400100004, 14.895071030000167], [108.35089897262768, 14.895092808393718], [108.3496, 14.886], [108.3511, 14.8801], [108.35435060971156, 14.878757356858268]], [[108.36189270000006, 14.88240051400004], [108.3587417600001, 14.880783081000061], [108.35592772917444, 14.878326174272328], [108.36307920186607, 14.882288476709581], [108.36305999799998, 14.882310867000172], [108.36189270000006, 14.88240051400004]], [[108.36920928900014, 14.870525360000158], [108.36875915500019, 14.873209], [108.36773775388166, 14.874415046058823], [108.3692, 14.8705], [108.36916101741843, 14.870368876771101], [108.36920928900014, 14.870525360000158]], [[108.37100219700017, 14.864493370000048], [108.3709988840064, 14.864495954523194], [108.37020163306505, 14.86160591986084], [108.37118530300006, 14.862732887000163], [108.37100219700017, 14.864493370000048]], [[108.37033063335228, 14.86138876308992], [108.37158189452848, 14.859365447145436], [108.3712539670002, 14.860341073000143], [108.37033063335228, 14.86138876308992]], [[108.37493133600009, 14.854002953000077], [108.37485995153678, 14.85406475921712], [108.3749, 14.854], [108.37496977047898, 14.853673180387888], [108.37493133600009, 14.854002953000077]], [[108.37679508728758, 14.845123012179263], [108.3768, 14.8451], [108.37878611507415, 14.844409177365511], [108.37679508728758, 14.845123012179263]], [[108.39459228500016, 14.826744081000129], [108.391716003, 14.831608773000085], [108.3892059330002, 14.833993913000086], [108.38920414825313, 14.833994392176328], [108.3946, 14.8267], [108.3948928676465, 14.8265255256574], [108.39459228500016, 14.826744081000129]], [[108.39967976023031, 14.823673759862789], [108.4034838751411, 14.821407478639337], [108.40217590300006, 14.822931290000042], [108.39967976023031, 14.823673759862789]], [[108.41841888400006, 14.81726551100013], [108.41664089314729, 14.816603226560625], [108.42939296843234, 14.816895258819061], [108.42574310300012, 14.817595482000172], [108.41841888400006, 14.81726551100013]], [[108.42961599422449, 14.816810698913258], [108.43037040515337, 14.812598571227038], [108.43067169100004, 14.815359115000149], [108.42961599422449, 14.816810698913258]], [[108.4354, 14.8056], [108.4354026539181, 14.805598714508417], [108.43560791000016, 14.808115960000066], [108.43083190900012, 14.810188293000067], [108.4307650614383, 14.810395073636238], [108.4308, 14.8102], [108.4356, 14.8081], [108.4354, 14.8056]], [[108.44190653763097, 14.802498409886105], [108.44837241856983, 14.802401904200451], [108.4444580070001, 14.802971839000179], [108.44190653763097, 14.802498409886105]], [[108.45498657300016, 14.793649673000118], [108.45304107700008, 14.800480843000116], [108.45300061662803, 14.800497872633285], [108.455, 14.7936], [108.45503637655368, 14.79355634813559], [108.45498657300016, 14.793649673000118]], [[108.45801544200003, 14.790026665000028], [108.45796148640243, 14.790046216317094], [108.458, 14.79], [108.46010536923627, 14.79], [108.45801544200003, 14.790026665000028]], [[108.48174158984142, 14.795962461404475], [108.4943540147745, 14.800084969230504], [108.49435424800004, 14.80012607599997], [108.48174158984142, 14.795962461404475]], [[108.49432373100007, 14.794747354000094], [108.4943338257786, 14.796526592044055], [108.4943, 14.7947], [108.49948066401916, 14.790814501985626], [108.49432373100007, 14.794747354000094]], [[108.50070720746271, 14.789879098358135], [108.50073737895467, 14.789791601031466], [108.50074005200008, 14.78985405000003], [108.50070720746271, 14.789879098358135]], [[108.50172424300007, 14.786980630000187], [108.50169702298875, 14.787008633332642], [108.5017, 14.787], [108.50168579951718, 14.786939325209763], [108.50172424300007, 14.786980630000187]], [[108.50243202592054, 14.777988723267413], [108.50063323900008, 14.782250406000117], [108.50063861175902, 14.782464977515792], [108.5006, 14.7823], [108.5024, 14.778], [108.50243202592054, 14.777988723267413]], [[108.50823974600013, 14.776106835000121], [108.50733018742342, 14.776264018512878], [108.51657481656432, 14.77300886740693], [108.5165863040001, 14.773036004000119], [108.50823974600013, 14.776106835000121]], [[108.52201843200015, 14.757148742000084], [108.52044677800012, 14.762753487000111], [108.5191062375181, 14.765620522863367], [108.522, 14.7571], [108.52369240169308, 14.756410503013928], [108.52201843200015, 14.757148742000084]], [[108.52470826894721, 14.755962494418002], [108.52471821674214, 14.755917374062369], [108.52473449600018, 14.755950928000118], [108.52470826894721, 14.755962494418002]], [[108.52541809805724, 14.752742912383182], [108.52559886587875, 14.751923001192804], [108.52565002400007, 14.752448082], [108.52541809805724, 14.752742912383182]], [[108.52754974300012, 14.743327142000112], [108.52683258000002, 14.747214317000157], [108.5265728237707, 14.747505406468566], [108.5275, 14.7433], [108.52749009928081, 14.743285910515002], [108.52754974300012, 14.743327142000112]], [[108.52513381209161, 14.739932732591903], [108.52313261681921, 14.737084877781191], [108.5246276860002, 14.73794078900005], [108.52513381209161, 14.739932732591903]], [[108.51960754400017, 14.729887008999981], [108.51974487300004, 14.732162476000042], [108.522216796, 14.735664368000073], [108.52254204086461, 14.736244442768854], [108.5197, 14.7322], [108.51860761252365, 14.72809262308894], [108.51960754400017, 14.729887008999981]], [[108.51824188200015, 14.724020005000057], [108.517936707, 14.72511100800017], [108.51874542300015, 14.726149559000191], [108.51860128682607, 14.728068838466006], [108.5172, 14.7228], [108.51720123840697, 14.722797808972302], [108.51824188200015, 14.724020005000057]], [[108.51854705900007, 14.72047615100007], [108.51785841933928, 14.721635104245893], [108.5185, 14.7205], [108.51840033546046, 14.720409563658555], [108.51854705900007, 14.72047615100007]], [[108.51205156987636, 14.711298233443328], [108.5085443694263, 14.709861548921616], [108.50984954900002, 14.710095405000061], [108.51205156987636, 14.711298233443328]], [[108.49973860116442, 14.70096316069865], [108.50041961700015, 14.701039315], [108.5018157950002, 14.702177048000067], [108.50316619800014, 14.70441436800013], [108.5040201123919, 14.708008238811138], [108.504, 14.708], [108.5018, 14.7022], [108.49973860116442, 14.70096316069865]], [[108.49780780104466, 14.6959353193732], [108.49774169900007, 14.695997239000121], [108.49681994166731, 14.699211965000393], [108.4968, 14.6992], [108.4977, 14.696], [108.49780780104466, 14.6959353193732]], [[108.5022090327482, 14.693281523924153], [108.50225611466051, 14.693185220012607], [108.50222778400013, 14.69327449900004], [108.5022090327482, 14.693281523924153]], [[108.5094146730001, 14.688163757000154], [108.50440979100006, 14.688823700000114], [108.50436480089435, 14.688871998170654], [108.5044, 14.6888], [108.51219277315067, 14.686629860641586], [108.5094146730001, 14.688163757000154]], [[108.51211801178056, 14.681964654367894], [108.50730647283306, 14.674021796422846], [108.50983429000013, 14.676513671000066], [108.51211801178056, 14.681964654367894]], [[108.50591329366023, 14.671721945089915], [108.5059, 14.6717], [108.5060935085029, 14.669881020072658], [108.50591329366023, 14.671721945089915]], [[108.50637651615025, 14.666990049216206], [108.5063110058574, 14.66696229061754], [108.50637817400013, 14.666973113999973], [108.50637651615025, 14.666990049216206]], [[108.50054168700012, 14.664454461000048], [108.50066026641562, 14.664567909498142], [108.5005, 14.6645], [108.49804278465938, 14.657521508432632], [108.50054168700012, 14.664454461000048]], [[108.49314739424656, 14.651170303424646], [108.4906369412344, 14.647947424557673], [108.49176025400016, 14.648582459000068], [108.49314739424656, 14.651170303424646]], [[108.49074554400005, 14.643592836000153], [108.49173736500012, 14.644921303], [108.49089738115502, 14.647088960486283], [108.4917, 14.6449], [108.48794705833328, 14.643681512445873], [108.49074554400005, 14.643592836000153]], [[108.48400879000008, 14.639257430000043], [108.48400879000008, 14.642402853896131], [108.484, 14.6424], [108.48309203384157, 14.637799638130646], [108.48400879000008, 14.639257430000043]], [[108.48546908951134, 14.622795550276017], [108.48892119279317, 14.622704705452811], [108.48746490500014, 14.623312951], [108.48546908951134, 14.622795550276017]], [[108.48934853659256, 14.6209602438521], [108.4894, 14.6206], [108.48941184112296, 14.620599703971926], [108.48934853659256, 14.6209602438521]], [[108.4956130990002, 14.620928764000041], [108.48983670585146, 14.620589082353714], [108.4974, 14.6204], [108.49743594967121, 14.62042156980273], [108.4956130990002, 14.620928764000041]], [[108.49743942812405, 14.620423656874431], [108.499294605494, 14.621536763296398], [108.49888610800019, 14.621542930000032], [108.49743942812405, 14.620423656874431]], [[108.5079304728167, 14.618937186200414], [108.50769805800007, 14.618848801000127], [108.50341033900014, 14.624010086000055], [108.5010986330002, 14.622823715000038], [108.5009585636775, 14.622535138206498], [108.5034, 14.624], [108.5077, 14.6188], [108.5079304728167, 14.618937186200414]], [[108.51507568400018, 14.620338441000115], [108.5128658384404, 14.620998175487374], [108.5151, 14.6203], [108.51702235915371, 14.62126117957686], [108.51507568400018, 14.620338441000115]], [[108.52793884400006, 14.616269113000044], [108.52754835093927, 14.618605254953698], [108.5279, 14.6163], [108.52869689252302, 14.615278342919222], [108.52793884400006, 14.616269113000044]]], [[[108.9537810010001, 15.193831000999978], [108.954636, 15.192900000000122], [108.953650999, 15.193050000000142], [108.95365900100012, 15.192201001000115], [108.95309400000019, 15.192228001000046], [108.952644, 15.193454000000145], [108.953316, 15.194052], [108.95307899900013, 15.193502], [108.9537810010001, 15.193831000999978]]], [[[108.931984, 15.253812000000153], [108.932076, 15.253188], [108.93315100000018, 15.253421000000117], [108.93215900000018, 15.25248500000015], [108.93122100000016, 15.25357200000019], [108.931984, 15.253812000000153]]], [[[109.09643554600012, 15.38525295200003], [109.09933471700009, 15.38992118800013], [109.11087799000018, 15.391646386000048], [109.11814880300017, 15.39144039200005], [109.12236785800013, 15.389629365000076], [109.12400817800011, 15.391224862000172], [109.12800598200016, 15.391271592000123], [109.13362884600014, 15.38878536300001], [109.13825225800008, 15.388271331000112], [109.14113617000015, 15.388807296000152], [109.142616272, 15.388099670000031], [109.14288330000011, 15.384856224000089], [109.14048004200004, 15.383378982000067], [109.1396713260001, 15.381963730000052], [109.14099121100014, 15.378811835000135], [109.140609741, 15.377715111000157], [109.13692474300012, 15.377302170000178], [109.13478088500017, 15.377855301000181], [109.13197326600016, 15.375683784000046], [109.12989807100013, 15.375263214000029], [109.12553405699998, 15.370714188000079], [109.11943817100013, 15.369131089000064], [109.11905670100015, 15.36985302000005], [109.11541748000008, 15.37074375200001], [109.11455536000011, 15.372460365000052], [109.10713195700009, 15.373539926000092], [109.10021972600009, 15.375648499000022], [109.09712982100012, 15.374878883000122], [109.09635162400014, 15.379005432000042], [109.09387207000015, 15.384285927000064], [109.09643554600012, 15.38525295200003]]], [[[108.77111099900009, 15.391361], [108.7737200000002, 15.392265], [108.77266700000013, 15.39115], [108.77111099900009, 15.391361]]], [[[108.780365, 15.393262000000163], [108.7804720000002, 15.392414000000144], [108.780159, 15.393173], [108.780365, 15.393262000000163]]], [[[108.78358500000019, 15.392406], [108.783257, 15.3924090000001], [108.78324900000013, 15.393402], [108.78358500000019, 15.392406]]], [[[109.07735443100012, 15.430801392000035], [109.07891082700007, 15.432105064999973], [109.08276367200011, 15.433080673000063], [109.08537292500006, 15.433121681999978], [109.08715057300009, 15.431950570000083], [109.0858688350001, 15.42779731800016], [109.08303070000017, 15.42646694300015], [109.07738494800003, 15.427149773000167], [109.07735443100012, 15.430801392000035]]]]}}]}